HIMAWARI-8              
1 40267U 14060A   24193.34424587 -.00000270  00000+0  00000+0 0  9994
2 40267   0.0144 256.2444 0001403 238.0317  60.0532  1.00267794 35683
